{
    "links": {
        "self": "http://www.neowsapp.com/rest/v1/neo/3826684?api_key=iIulBulltgU6a56xZRHN4H3l9WmuAYTsLGpBGhQ2"
    },
    "id": "3826684",
    "neo_reference_id": "3826684",
    "name": "(2018 PQ10)",
    "designation": "2018 PQ10",
    "nasa_jpl_url": "http://ssd.jpl.nasa.gov/sbdb.cgi?sstr=3826684",
    "absolute_magnitude_h": 24.9,
    "estimated_diameter": {
        "kilometers": {
            "estimated_diameter_min": 0.0278326768,
            "estimated_diameter_max": 0.0622357573
        },
        "meters": {
            "estimated_diameter_min": 27.8326768072,
            "estimated_diameter_max": 62.2357573367
        },
        "miles": {
            "estimated_diameter_min": 0.0172944182,
            "estimated_diameter_max": 0.0386714948
        },
        "feet": {
            "estimated_diameter_min": 91.3145593761,
            "estimated_diameter_max": 204.1855621004
        }
    },
    "is_potentially_hazardous_asteroid": false,
    "close_approach_data": [
        {
            "close_approach_date": "2018-06-29",
            "close_approach_date_full": "2018-Jun-29 04:57",
            "epoch_date_close_approach": 1530248220000,
            "relative_velocity": {
                "kilometers_per_second": "11.7559330421",
                "kilometers_per_hour": "42321.3589516064",
                "miles_per_hour": "26296.8466219023"
            },
            "miss_distance": {
                "astronomical": "0.0617537985",
                "lunar": "24.0222276165",
                "kilometers": "9238236.720009195",
                "miles": "5740374.113129091"
            },
            "orbiting_body": "Mars"
        },
        {
            "close_approach_date": "2018-08-27",
            "close_approach_date_full": "2018-Aug-27 07:29",
            "epoch_date_close_approach": 1535354940000,
            "relative_velocity": {
                "kilometers_per_second": "10.5755769573",
                "kilometers_per_hour": "38072.0770461043",
                "miles_per_hour": "23656.5080956752"
            },
            "miss_distance": {
                "astronomical": "0.0809168288",
                "lunar": "31.4766464032",
                "kilometers": "12104985.235634656",
                "miles": "7521689.0400680128"
            },
            "orbiting_body": "Earth"
        }
    ],
    "orbital_data": {
        "orbit_id": "3",
        "orbit_determination_date": "2018-08-24 06:53:56",
        "first_observation_date": "2018-08-08",
        "last_observation_date": "2018-08-14",
        "data_arc_in_days": 6,
        "observations_used": 12,
        "orbit_uncertainty": "9",
        "minimum_orbit_intersection": ".026665",
        "jupiter_tisserand_invariant": "3.679",
        "epoch_osculation": "2458341.5",
        "eccentricity": ".506553472747116",
        "semi_major_axis": "1.989386928272162",
        "inclination": "4.468629164155902",
        "ascending_node_longitude": "329.1331737813128",
        "orbital_period": "1024.890144344708",
        "perihelion_distance": ".9816560711181804",
        "perihelion_argument": "44.67107009443385",
        "aphelion_distance": "2.997117785426143",
        "perihelion_time": "2458388.233232623187",
        "mean_anomaly": "343.5846174956593",
        "mean_motion": ".3512571586198402",
        "equinox": "J2000",
        "orbit_class": {
            "orbit_class_type": "APO",
            "orbit_class_description": "Near-Earth asteroid orbits which cross the Earth’s orbit similar to that of 1862 Apollo",
            "orbit_class_range": "a (semi-major axis) > 1.0 AU; q (perihelion) < 1.017 AU"
        }
    },
    "is_sentry_object": false
}